{{Infobox Planet  
| name = 522 Helga
| image = 
| caption = 
| discovery=yes | physical_characteristics = yes | bgcolour=#FFFFC0
| discovery_ref = 
| discoverer = [[马克斯·沃夫|马克斯·沃夫]]
| discovery_site = [[海德堡|海德堡]]（[[天文台编号列表|024]]）
| discovered =  1904年1月10日
| mp_name = 522
| alt_names = 1904 NC
| named_after = 
| mp_category=[[小行星带|外主带小行星]]（[[原神星族|原神星族]]）
| orbit_ref = <ref>[http://ssd.jpl.nasa.gov/sbdb.cgi?sstr=522 522 Helga (1904 NC)]</ref>
| epoch = 2011年8月27日
| semimajor= 3.624236555441983AU
| perihelion=3.348723988594055AU
| aphelion= 3.899749122289912[[天文单位|AU]]
| eccentricity =0.07601947682863908					
| period =2520.131667470998[[日|地球日]]<br>6.90[[年|地球年]] 
| inclination=4.437384955953454[[角度|°]]
| asc_node=117.0266870698172°
| arg_peri=238.7330175865989°
| mean_anomaly=312.0588102628913°
| avg_speed=
 | dimensions=101.22千米
 | mass=
 | density=
 | surface_grav=
 | escape_velocity=
 | rotation=8.129小时
 | spectral_type= [[X-型小行星|X]]
 | magnitude=
 | abs_magnitude=9.12
 | albedo=0.0388
 | single_temperature=
}}
'''小行星522'''（'''522Helga'''），是由[[德国|德国]][[天文学家|天文学家]][[马克斯·沃夫|马克斯·沃夫]]于1904年1月10日在德国[[海德堡|海德堡]][[王座山天文台|王座山天文台]]利用照相法发现的[[小行星带|外主带]][[小行星|小行星]]。小行星522是[[原神星族|原神星族]]小行星的一员。

小行星522的命名依据不明。

== 参考资料 ==
{{Reflist}}

{{Minor Planet Number|(521)[[小行星521|小行星521]]|(523)[[小行星523|小行星523]]}}

[[Category:小行星带天体|Category:小行星带天体]]
[[Category:1904年发现的小行星|Category:1904年发现的小行星]]
[[Category:X-型小行星|Category:X-型小行星]]